start=new Date('2021-09-03T00:00:00.000Z').valueOf();
sats=[{"MEAN_MOTION_DOT":"-0.00001077","PERIOD":"95.592","MEAN_MOTION":"15.06400962","COUNTRY_CODE":"US","OBJECT_NAME":"STARLINK-1770","RA_OF_ASC_NODE":"219.5509","TLE_LINE2":"2 46383  53.0553 219.5509 0001055  60.6173 299.4921 15.06400962 55753","OBJECT_TYPE":"PAYLOAD","INCLINATION":"53.0553","ARG_OF_PERICENTER":"60.6173","FILE":"3107724","BSTAR":"-0.00005343200000","MEAN_MOTION_DDOT":"0.0000000000000","REF_FRAME":"TEME","SITE":"AFETR","MEAN_ELEMENT_THEORY":"SGP4","TLE_LINE1":"1 46383U 20062BL  21245.62768866 -.00001077  00000-0 -53432-4 0  9995","NORAD_CAT_ID":"46383","CENTER_NAME":"EARTH","ELEMENT_SET_NO":"999","MEAN_ANOMALY":"299.4921","EPOCH":"2021-09-02T15:03:52.300224","EPHEMERIS_TYPE":"0","DECAY_DATE":null,"PERIAPSIS":"546.480","APOAPSIS":"547.941","SEMIMAJOR_AXIS":"6925.346","CLASSIFICATION_TYPE":"U","TIME_SYSTEM":"UTC","LAUNCH_DATE":"2020-09-03","GP_ID":"183988130","RCS_SIZE":"LARGE","REV_AT_EPOCH":"5575","OBJECT_ID":"2020-062BL","ECCENTRICITY":"0.00010550"},{"LAUNCH_DATE":"2020-09-03","GP_ID":"183988380","REV_AT_EPOCH":"5575","RCS_SIZE":"LARGE","OBJECT_ID":"2020-062BM","ECCENTRICITY":"0.00008710","PERIAPSIS":"546.629","CLASSIFICATION_TYPE":"U","APOAPSIS":"547.835","SEMIMAJOR_AXIS":"6925.367","TIME_SYSTEM":"UTC","ELEMENT_SET_NO":"999","CENTER_NAME":"EARTH","DECAY_DATE":null,"EPHEMERIS_TYPE":"0","MEAN_ANOMALY":"325.6307","EPOCH":"2021-09-02T15:09:11.136096","SITE":"AFETR","TLE_LINE1":"1 46384U 20062BM  21245.63137889  .00000759  00000-0  69843-4 0  9999","NORAD_CAT_ID":"46384","MEAN_ELEMENT_THEORY":"SGP4","FILE":"3107724","ARG_OF_PERICENTER":"34.4738","BSTAR":"0.00006984300000","TLE_LINE2":"2 46384  53.0531 219.5249 0000871  34.4738 325.6307 15.06393996 55750","INCLINATION":"53.0531","OBJECT_TYPE":"PAYLOAD","REF_FRAME":"TEME","MEAN_MOTION_DDOT":"0.0000000000000","COUNTRY_CODE":"US","OBJECT_NAME":"STARLINK-1771","RA_OF_ASC_NODE":"219.5249","MEAN_MOTION":"15.06393996","PERIOD":"95.593","MEAN_MOTION_DOT":"0.00000759"},{"ECCENTRICITY":"0.00012650","OBJECT_ID":"2020-070A","GP_ID":"183988394","RCS_SIZE":"LARGE","REV_AT_EPOCH":"5097","LAUNCH_DATE":"2020-10-06","MEAN_ANOMALY":"256.4232","EPOCH":"2021-09-02T18:20:15.761184","DECAY_DATE":null,"EPHEMERIS_TYPE":"0","CENTER_NAME":"EARTH","ELEMENT_SET_NO":"999","TIME_SYSTEM":"UTC","PERIAPSIS":"546.344","CLASSIFICATION_TYPE":"U","APOAPSIS":"548.096","SEMIMAJOR_AXIS":"6925.355","MEAN_MOTION_DDOT":"0.0000000000000","REF_FRAME":"TEME","TLE_LINE2":"2 46532  53.0553  18.9434 0001265 103.6898 256.4232 15.06397969 50971","OBJECT_TYPE":"PAYLOAD","INCLINATION":"53.0553","BSTAR":"-0.00001421000000","FILE":"3107724","ARG_OF_PERICENTER":"103.6898","MEAN_ELEMENT_THEORY":"SGP4","NORAD_CAT_ID":"46532","TLE_LINE1":"1 46532U 20070A   21245.76407131 -.00000493  00000-0 -14210-4 0  9992","SITE":"AFETR","MEAN_MOTION_DOT":"-0.00000493","PERIOD":"95.592","MEAN_MOTION":"15.06397969","RA_OF_ASC_NODE":"18.9434","OBJECT_NAME":"STARLINK-1644","COUNTRY_CODE":"US"},{"EPOCH":"2021-09-02T18:36:11.814336","MEAN_ANOMALY":"258.0414","DECAY_DATE":null,"EPHEMERIS_TYPE":"0","CENTER_NAME":"EARTH","ELEMENT_SET_NO":"999","TIME_SYSTEM":"UTC","APOAPSIS":"548.031","PERIAPSIS":"546.413","SEMIMAJOR_AXIS":"6925.357","CLASSIFICATION_TYPE":"U","ECCENTRICITY":"0.00011680","GP_ID":"183988645","REV_AT_EPOCH":"5097","RCS_SIZE":"LARGE","OBJECT_ID":"2020-070B","LAUNCH_DATE":"2020-10-06","MEAN_MOTION_DOT":"0.00001616","PERIOD":"95.592","MEAN_MOTION":"15.06397184","RA_OF_ASC_NODE":"18.8994","OBJECT_NAME":"STARLINK-1648","COUNTRY_CODE":"US","REF_FRAME":"TEME","MEAN_MOTION_DDOT":"0.0000000000000","TLE_LINE2":"2 46533  53.0570  18.8994 0001168 102.0706 258.0414 15.06397184 50973","INCLINATION":"53.0570","OBJECT_TYPE":"PAYLOAD","FILE":"3107724","ARG_OF_PERICENTER":"102.0706","BSTAR":"0.00012737000000","MEAN_ELEMENT_THEORY":"SGP4","NORAD_CAT_ID":"46533","TLE_LINE1":"1 46533U 20070B   21245.77513674  .00001616  00000-0  12737-3 0  9991","SITE":"AFETR"},{"ECCENTRICITY":"0.00011970","GP_ID":"183989396","REV_AT_EPOCH":"5097","RCS_SIZE":"LARGE","OBJECT_ID":"2020-070C","LAUNCH_DATE":"2020-10-06","TIME_SYSTEM":"UTC","PERIAPSIS":"546.414","APOAPSIS":"548.072","CLASSIFICATION_TYPE":"U","SEMIMAJOR_AXIS":"6925.378","MEAN_ANOMALY":"240.9947","EPOCH":"2021-09-02T18:09:40.063680","DECAY_DATE":null,"EPHEMERIS_TYPE":"0","CENTER_NAME":"EARTH","ELEMENT_SET_NO":"999","MEAN_ELEMENT_THEORY":"SGP4","NORAD_CAT_ID":"46534","TLE_LINE1":"1 46534U 20070C   21245.75671370  .00001009  00000-0  86638-4 0  9996","SITE":"AFETR","REF_FRAME":"TEME","MEAN_MOTION_DDOT":"0.0000000000000","TLE_LINE2":"2 46534  53.0568  18.9768 0001197 119.1162 240.9947 15.06390327 50971","INCLINATION":"53.0568","OBJECT_TYPE":"PAYLOAD","FILE":"3107724","BSTAR":"0.00008663800000","ARG_OF_PERICENTER":"119.1162","RA_OF_ASC_NODE":"18.9768","OBJECT_NAME":"STARLINK-1659","COUNTRY_CODE":"US","MEAN_MOTION_DOT":"0.00001009","PERIOD":"95.593","MEAN_MOTION":"15.06390327"},{"PERIOD":"95.593","MEAN_MOTION":"15.06384168","MEAN_MOTION_DOT":"0.00001203","RA_OF_ASC_NODE":"19.0297","OBJECT_NAME":"STARLINK-1663","COUNTRY_CODE":"US","MEAN_MOTION_DDOT":"0.0000000000000","REF_FRAME":"TEME","FILE":"3107724","BSTAR":"0.00009968500000","ARG_OF_PERICENTER":"113.8194","TLE_LINE2":"2 46535  53.0556  19.0297 0001307 113.8194 246.2932 15.06384168 50965","INCLINATION":"53.0556","OBJECT_TYPE":"PAYLOAD","NORAD_CAT_ID":"46535","TLE_LINE1":"1 46535U 20070D   21245.74566974  .00001203  00000-0  99685-4 0  9991","MEAN_ELEMENT_THEORY":"SGP4","SITE":"AFETR","DECAY_DATE":null,"EPHEMERIS_TYPE":"0","EPOCH":"2021-09-02T17:53:45.865536","MEAN_ANOMALY":"246.2932","ELEMENT_SET_NO":"999","CENTER_NAME":"EARTH","TIME_SYSTEM":"UTC","PERIAPSIS":"546.357","APOAPSIS":"548.167","CLASSIFICATION_TYPE":"U","SEMIMAJOR_AXIS":"6925.397","ECCENTRICITY":"0.00013070","OBJECT_ID":"2020-070D","GP_ID":"183987644","RCS_SIZE":"LARGE","REV_AT_EPOCH":"5096","LAUNCH_DATE":"2020-10-06"},{"ECCENTRICITY":"0.00016710","GP_ID":"183987894","OBJECT_ID":"2020-070E","RCS_SIZE":"LARGE","REV_AT_EPOCH":"5108","LAUNCH_DATE":"2020-10-06","DECAY_DATE":null,"EPHEMERIS_TYPE":"0","MEAN_ANOMALY":"311.6629","EPOCH":"2021-09-02T18:54:30.036960","ELEMENT_SET_NO":"999","CENTER_NAME":"EARTH","TIME_SYSTEM":"UTC","SEMIMAJOR_AXIS":"6817.850","PERIAPSIS":"438.576","APOAPSIS":"440.855","CLASSIFICATION_TYPE":"U","MEAN_MOTION_DDOT":"0.0000000000000","REF_FRAME":"TEME","BSTAR":"0.00016036000000","FILE":"3107724","ARG_OF_PERICENTER":"48.4518","TLE_LINE2":"2 46536  53.0567  11.2190 0001671  48.4518 311.6629 15.42167542 51080","INCLINATION":"53.0567","OBJECT_TYPE":"PAYLOAD","NORAD_CAT_ID":"46536","TLE_LINE1":"1 46536U 20070E   21245.78784765  .00006575  00000-0  16036-3 0  9991","MEAN_ELEMENT_THEORY":"SGP4","SITE":"AFETR","PERIOD":"93.375","MEAN_MOTION":"15.42167542","MEAN_MOTION_DOT":"0.00006575","RA_OF_ASC_NODE":"11.2190","OBJECT_NAME":"STARLINK-1668","COUNTRY_CODE":"US"},{"MEAN_MOTION_DOT":"0.00001775","MEAN_MOTION":"15.06400999","PERIOD":"95.592","RA_OF_ASC_NODE":"19.2064","COUNTRY_CODE":"US","OBJECT_NAME":"STARLINK-1672","MEAN_MOTION_DDOT":"0.0000000000000","REF_FRAME":"TEME","OBJECT_TYPE":"PAYLOAD","TLE_LINE2":"2 46537  53.0565  19.2064 0001126 112.4188 247.6920 15.06400999 50961","INCLINATION":"53.0565","FILE":"3107724","ARG_OF_PERICENTER":"112.4188","BSTAR":"0.00013800000000","MEAN_ELEMENT_THEORY":"SGP4","TLE_LINE1":"1 46537U 20070F   21245.70510259  .00001775  00000-0  13800-3 0  9992","NORAD_CAT_ID":"46537","SITE":"AFETR","EPOCH":"2021-09-02T16:55:20.863776","MEAN_ANOMALY":"247.6920","DECAY_DATE":null,"EPHEMERIS_TYPE":"0","CENTER_NAME":"EARTH","ELEMENT_SET_NO":"999","SEMIMAJOR_AXIS":"6925.345","PERIAPSIS":"546.431","APOAPSIS":"547.990","CLASSIFICATION_TYPE":"U","TIME_SYSTEM":"UTC","GP_ID":"183989146","RCS_SIZE":"LARGE","OBJECT_ID":"2020-070F","REV_AT_EPOCH":"5096","ECCENTRICITY":"0.00011260","LAUNCH_DATE":"2020-10-06"},{"NORAD_CAT_ID":"46538","TLE_LINE1":"1 46538U 20070G   21245.68298450 -.00000748  00000-0 -31319-4 0  9993","MEAN_ELEMENT_THEORY":"SGP4","SITE":"AFETR","REF_FRAME":"TEME","MEAN_MOTION_DDOT":"0.0000000000000","ARG_OF_PERICENTER":"115.9586","FILE":"3107724","BSTAR":"-0.00003131900000","OBJECT_TYPE":"PAYLOAD","TLE_LINE2":"2 46538  53.0552  19.3114 0001077 115.9586 244.1514 15.06389153 50958","INCLINATION":"53.0552","RA_OF_ASC_NODE":"19.3114","OBJECT_NAME":"STARLINK-1678","COUNTRY_CODE":"US","PERIOD":"95.593","MEAN_MOTION":"15.06389153","MEAN_MOTION_DOT":"-0.00000748","ECCENTRICITY":"0.00010770","GP_ID":"183988896","OBJECT_ID":"2020-070G","RCS_SIZE":"LARGE","REV_AT_EPOCH":"5095","LAUNCH_DATE":"2020-10-06","TIME_SYSTEM":"UTC","PERIAPSIS":"546.501","CLASSIFICATION_TYPE":"U","APOAPSIS":"547.993","SEMIMAJOR_AXIS":"6925.382","DECAY_DATE":null,"EPHEMERIS_TYPE":"0","MEAN_ANOMALY":"244.1514","EPOCH":"2021-09-02T16:23:29.860800","ELEMENT_SET_NO":"999","CENTER_NAME":"EARTH"},{"COUNTRY_CODE":"US","OBJECT_NAME":"STARLINK-1684","RA_OF_ASC_NODE":"18.7458","MEAN_MOTION_DOT":"0.00001623","MEAN_MOTION":"15.06402831","PERIOD":"95.592","SITE":"AFETR","MEAN_ELEMENT_THEORY":"SGP4","TLE_LINE1":"1 46539U 20070H   21245.80830588  .00001623  00000-0  12791-3 0  9995","NORAD_CAT_ID":"46539","INCLINATION":"53.0564","TLE_LINE2":"2 46539  53.0564  18.7458 0004364 118.8632 241.2795 15.06402831 50983","OBJECT_TYPE":"PAYLOAD","FILE":"3107724","BSTAR":"0.00012791000000","ARG_OF_PERICENTER":"118.8632","REF_FRAME":"TEME","MEAN_MOTION_DDOT":"0.0000000000000","PERIAPSIS":"544.183","APOAPSIS":"550.227","SEMIMAJOR_AXIS":"6925.340","CLASSIFICATION_TYPE":"U","TIME_SYSTEM":"UTC","CENTER_NAME":"EARTH","ELEMENT_SET_NO":"999","MEAN_ANOMALY":"241.2795","EPOCH":"2021-09-02T19:23:57.628032","EPHEMERIS_TYPE":"0","DECAY_DATE":null,"LAUNCH_DATE":"2020-10-06","GP_ID":"183988145","REV_AT_EPOCH":"5098","RCS_SIZE":"LARGE","OBJECT_ID":"2020-070H","ECCENTRICITY":"0.00043640"}];
